{
  "type": "FeatureCollection",
  "features": [
    {
      "type": "Feature",
      "properties": {
        "norad_id": 30663,
        "name": "FENGYUN 1C DEB",
        "group": "fengyun-1c-debris",
        "lat": -75.48684136752695,
        "lon": -62.37425958472359,
        "alt_km": 1475.7566073249673,
        "timestamp": "2025-12-06T18:50:10.446298+00:00",
        "meta_object_name": "FENGYUN 1C DEB",
        "meta_object_id": "1999-025APV",
        "meta_epoch": "2025-12-05T12:25:41.665440",
        "meta_mean_motion": 13.23094732,
        "meta_eccentricity": 0.06475188,
        "meta_inclination": 99.3024,
        "meta_ra_of_asc_node": 257.2057,
        "meta_arg_of_pericenter": 154.1824,
        "meta_mean_anomaly": 209.3175,
        "meta_ephemeris_type": 0,
        "meta_classification_type": "U",
        "meta_norad_cat_id": 30663,
        "meta_element_set_no": 999,
        "meta_rev_at_epoch": 88952,
        "meta_bstar": 0.0022629214,
        "meta_mean_motion_dot": 2.911e-05,
        "meta_mean_motion_ddot": 0,
        "tle_line1": "1 30663U 99025APV 25339.51784335  .00002911  00000+0  22629-2 0  9996",
        "tle_line2": "2 30663  99.3024 257.2057 0647518 154.1824 209.3175 13.23094732889524"
      },
      "geometry": {
        "type": "Point",
        "coordinates": [
          -62.37425958472359,
          -75.48684136752695
        ]
      }
    },
    {
      "type": "Feature",
      "properties": {
        "norad_id": 30665,
        "name": "FENGYUN 1C DEB",
        "group": "fengyun-1c-debris",
        "lat": 10.42526086475905,
        "lon": -49.487631493805054,
        "alt_km": 895.7646991905603,
        "timestamp": "2025-12-06T18:50:10.446308+00:00",
        "meta_object_name": "FENGYUN 1C DEB",
        "meta_object_id": "1999-025APX",
        "meta_epoch": "2025-12-05T11:03:31.169088",
        "meta_mean_motion": 14.12276088,
        "meta_eccentricity": 0.00677678,
        "meta_inclination": 99.2076,
        "meta_ra_of_asc_node": 310.863,
        "meta_arg_of_pericenter": 223.3487,
        "meta_mean_anomaly": 258.8154,
        "meta_ephemeris_type": 0,
        "meta_classification_type": "U",
        "meta_norad_cat_id": 30665,
        "meta_element_set_no": 999,
        "meta_rev_at_epoch": 95867,
        "meta_bstar": 0.0030616319,
        "meta_mean_motion_dot": 5.713e-05,
        "meta_mean_motion_ddot": 0,
        "tle_line1": "1 30665U 99025APX 25339.46077742  .00005713  00000+0  30616-2 0  9997",
        "tle_line2": "2 30665  99.2076 310.8630 0067767 223.3487 258.8154 14.12276088958675"
      },
      "geometry": {
        "type": "Point",
        "coordinates": [
          -49.487631493805054,
          10.42526086475905
        ]
      }
    },
    {
      "type": "Feature",
      "properties": {
        "norad_id": 30666,
        "name": "FENGYUN 1C DEB",
        "group": "fengyun-1c-debris",
        "lat": 28.89792150283083,
        "lon": -40.32850130139272,
        "alt_km": 912.3927509341474,
        "timestamp": "2025-12-06T18:50:10.446318+00:00",
        "meta_object_name": "FENGYUN 1C DEB",
        "meta_object_id": "1999-025APY",
        "meta_epoch": "2025-12-06T05:05:19.296960",
        "meta_mean_motion": 14.02549529,
        "meta_eccentricity": 0.00608353,
        "meta_inclination": 98.8223,
        "meta_ra_of_asc_node": 324.0345,
        "meta_arg_of_pericenter": 161.9873,
        "meta_mean_anomaly": 217.2706,
        "meta_ephemeris_type": 0,
        "meta_classification_type": "U",
        "meta_norad_cat_id": 30666,
        "meta_element_set_no": 999,
        "meta_rev_at_epoch": 96019,
        "meta_bstar": 0.00028128225,
        "meta_mean_motion_dot": 3.98e-06,
        "meta_mean_motion_ddot": 0,
        "tle_line1": "1 30666U 99025APY 25340.21202890  .00000398  00000+0  28128-3 0  9997",
        "tle_line2": "2 30666  98.8223 324.0345 0060835 161.9873 217.2706 14.02549529960194"
      },
      "geometry": {
        "type": "Point",
        "coordinates": [
          -40.32850130139272,
          28.89792150283083
        ]
      }
    },
    {
      "type": "Feature",
      "properties": {
        "norad_id": 30668,
        "name": "FENGYUN 1C DEB",
        "group": "fengyun-1c-debris",
        "lat": 74.9574521951216,
        "lon": -89.50337419076648,
        "alt_km": 897.9938747085498,
        "timestamp": "2025-12-06T18:50:10.446328+00:00",
        "meta_object_name": "FENGYUN 1C DEB",
        "meta_object_id": "1999-025AQA",
        "meta_epoch": "2025-12-03T03:46:19.506144",
        "meta_mean_motion": 14.12223902,
        "meta_eccentricity": 0.00784298,
        "meta_inclination": 99.1324,
        "meta_ra_of_asc_node": 50.0364,
        "meta_arg_of_pericenter": 272.9786,
        "meta_mean_anomaly": 116.1609,
        "meta_ephemeris_type": 0,
        "meta_classification_type": "U",
        "meta_norad_cat_id": 30668,
        "meta_element_set_no": 999,
        "meta_rev_at_epoch": 95920,
        "meta_bstar": 0.0023512126,
        "meta_mean_motion_dot": 4.404e-05,
        "meta_mean_motion_ddot": 0,
        "tle_line1": "1 30668U 99025AQA 25337.15717021  .00004404  00000+0  23512-2 0  9998",
        "tle_line2": "2 30668  99.1324  50.0364 0078429 272.9786 116.1609 14.12223902959207"
      },
      "geometry": {
        "type": "Point",
        "coordinates": [
          -89.50337419076648,
          74.9574521951216
        ]
      }
    },
    {
      "type": "Feature",
      "properties": {
        "norad_id": 30669,
        "name": "FENGYUN 1C DEB",
        "group": "fengyun-1c-debris",
        "lat": 4.042028890698972,
        "lon": -82.85434014749889,
        "alt_km": 971.0132565944341,
        "timestamp": "2025-12-06T18:50:10.446338+00:00",
        "meta_object_name": "FENGYUN 1C DEB",
        "meta_object_id": "1999-025AQB",
        "meta_epoch": "2025-12-05T19:07:10.078752",
        "meta_mean_motion": 14.02688035,
        "meta_eccentricity": 0.01174867,
        "meta_inclination": 98.6344,
        "meta_ra_of_asc_node": 276.8237,
        "meta_arg_of_pericenter": 196.3001,
        "meta_mean_anomaly": 220.3603,
        "meta_ephemeris_type": 0,
        "meta_classification_type": "U",
        "meta_norad_cat_id": 30669,
        "meta_element_set_no": 999,
        "meta_rev_at_epoch": 95356,
        "meta_bstar": 0.0020272165,
        "meta_mean_motion_dot": 3.286e-05,
        "meta_mean_motion_ddot": 0,
        "tle_line1": "1 30669U 99025AQB 25339.79664443  .00003286  00000+0  20272-2 0  9997",
        "tle_line2": "2 30669  98.6344 276.8237 0117486 196.3001 220.3603 14.02688035953563"
      },
      "geometry": {
        "type": "Point",
        "coordinates": [
          -82.85434014749889,
          4.042028890698972
        ]
      }
    },
    {
      "type": "Feature",
      "properties": {
        "norad_id": 30670,
        "name": "FENGYUN 1C DEB",
        "group": "fengyun-1c-debris",
        "lat": 6.2831146270005425,
        "lon": 24.380549693508964,
        "alt_km": 836.3468635094596,
        "timestamp": "2025-12-06T18:50:10.446348+00:00",
        "meta_object_name": "FENGYUN 1C DEB",
        "meta_object_id": "1999-025AQC",
        "meta_epoch": "2025-12-06T01:59:06.978624",
        "meta_mean_motion": 14.15813406,
        "meta_eccentricity": 0.00400203,
        "meta_inclination": 98.7117,
        "meta_ra_of_asc_node": 24.6615,
        "meta_arg_of_pericenter": 88.2321,
        "meta_mean_anomaly": 302.0262,
        "meta_ephemeris_type": 0,
        "meta_classification_type": "U",
        "meta_norad_cat_id": 30670,
        "meta_element_set_no": 999,
        "meta_rev_at_epoch": 97058,
        "meta_bstar": 0.00015391765,
        "meta_mean_motion_dot": 2.62e-06,
        "meta_mean_motion_ddot": 0,
        "tle_line1": "1 30670U 99025AQC 25340.08271966  .00000262  00000+0  15392-3 0  9996",
        "tle_line2": "2 30670  98.7117  24.6615 0040020  88.2321 302.0262 14.15813406970582"
      },
      "geometry": {
        "type": "Point",
        "coordinates": [
          24.380549693508964,
          6.2831146270005425
        ]
      }
    },
    {
      "type": "Feature",
      "properties": {
        "norad_id": 30671,
        "name": "FENGYUN 1C DEB",
        "group": "fengyun-1c-debris",
        "lat": 45.34293434736546,
        "lon": 35.97736086577313,
        "alt_km": 813.5259336879863,
        "timestamp": "2025-12-06T18:50:10.446358+00:00",
        "meta_object_name": "FENGYUN 1C DEB",
        "meta_object_id": "1999-025AQD",
        "meta_epoch": "2025-12-06T03:16:25.394592",
        "meta_mean_motion": 13.95429354,
        "meta_eccentricity": 0.0126632,
        "meta_inclination": 99.2533,
        "meta_ra_of_asc_node": 44.8229,
        "meta_arg_of_pericenter": 51.3729,
        "meta_mean_anomaly": 339.2032,
        "meta_ephemeris_type": 0,
        "meta_classification_type": "U",
        "meta_norad_cat_id": 30671,
        "meta_element_set_no": 999,
        "meta_rev_at_epoch": 95103,
        "meta_bstar": 0.0020388018,
        "meta_mean_motion_dot": 2.913e-05,
        "meta_mean_motion_ddot": 0,
        "tle_line1": "1 30671U 99025AQD 25340.13640503  .00002913  00000+0  20388-2 0  9995",
        "tle_line2": "2 30671  99.2533  44.8229 0126632  51.3729 339.2032 13.95429354951031"
      },
      "geometry": {
        "type": "Point",
        "coordinates": [
          35.97736086577313,
          45.34293434736546
        ]
      }
    }
  ]
}